NVS-02 (IRNSS-1K)       
1 62850U 25020A   26087.65664654  .00001479  00000+0  11478-2 0  9998
2 62850  20.8225 288.7707 7349659  95.8271 343.7924  2.17784504  9229
