{
  "norad_id": 62850,
  "name": "NVS-02 (IRNSS-1K)",
  "history": [
    {
      "epoch": "2026-03-28T15:45:34.261056",
      "apogee_km": 37240.772243835454,
      "perigee_km": 285.10540402742936,
      "latitude_deg": 10.632736221064087,
      "longitude_deg": 168.03806784003973,
      "semi_major_axis_km": 25141.075823931442,
      "eccentricity": 0.7349659,
      "inclination_deg": 20.8225,
      "raan_deg": 288.7707,
      "arg_perigee_deg": 95.8271,
      "mean_anomaly_deg": 343.7924,
      "mean_motion_rev_day": 2.17784504
    }
  ]
}